ESTCUBE 1               
1 39161U 13021C   22284.17160033  .00002177  00000+0  34498-3 0  9993
2 39161  97.9002 358.3640 0010303  53.6497 306.5693 14.73169010506509
FENGYUN 3C              
1 39260U 13052A   22284.51345261  .00000132  00000+0  87963-4 0  9998
2 39260  98.4484 306.7172 0010129 304.4759  55.5464 14.15949098468344
CASSIOPE                
1 39265U 13055A   22284.50620908  .00018612  00000+0  49035-3 0  9998
2 39265  80.9625 144.1031 0611477 333.7854  23.3517 14.41345791469010
ZACUBE-1 (TSHEPISOSAT)  
1 39417U 13066B   22284.45795954  .00005410  00000+0  65632-3 0  9990
2 39417  97.6508 250.8214 0058053  25.8608 334.5488 14.82758686480319
CINEMA-3 (KHUSAT-2)     
1 39426U 13066L   22284.38760322  .00001954  00000+0  30627-3 0  9998
2 39426  97.8055 219.3251 0101689 223.8891 135.4206 14.70387004476575
TRITON-1                
1 39427U 13066M   22284.39432824  .00003254  00000+0  51086-3 0  9990
2 39427  97.8175 215.1841 0109674 253.8954 105.0156 14.69315031475994
DELFI-N3XT              
1 39428U 13066N   22284.08630307  .00005998  00000+0  91672-3 0  9995
2 39428  97.8176 213.5173 0114621 268.1485  90.6591 14.69753334475693
GOMX-1                  
1 39430U 13066Q   22284.39078051  .00003166  00000+0  56609-3 0  9990
2 39430  97.7986 184.9207 0149938  39.6706 321.5366 14.60449108473213
BRITE-PL1 (LEM)         
1 39431U 13066R   22283.47452539  .00001112  00000+0  24582-3 0  9990
2 39431  97.6885 126.9106 0200162 232.0371 126.2594 14.47442805469006
ICUBE-1                 
1 39432U 13066S   22283.71598585  .00005140  00000+0  50138-3 0  9991
2 39432  97.4726 281.5692 0029269 237.2621 122.5777 14.92532320481894
HUMSAT-D                
1 39433U 13066T   22283.49610511  .00008022  00000+0  73045-3 0  9995
2 39433  97.4508 289.0825 0028090 209.0640 150.9019 14.95111680482400
VELOX-PII               
1 39438U 13066Y   22284.45761002  .00003644  00000+0  47724-3 0  9999
2 39438  97.7065 242.2012 0070652  79.0999 281.8153 14.79211006479288
FIRST-MOVE              
1 39439U 13066Z   22284.20412810  .00010716  00000+0  12169-2 0  9995
2 39439  97.6503 253.2887 0062582  21.0240 339.3527 14.85034586480319
CUBEBUG-2 (LO-74)       
1 39440U 13066AA  22284.15314612  .00003801  00000+0  51422-3 0  9995
2 39440  97.7391 236.9365 0079724 115.5539 245.3941 14.77355648478568
NEE-02 KRYSAOR          
1 39441U 13066AB  22283.78332145  .00002476  00000+0  34789-3 0  9999
2 39441  97.7497 233.6958 0081358 130.9271 229.9020 14.75991672477047
FUNCUBE-1 (AO-73)       
1 39444U 13066AE  22283.91546280  .00006711  00000+0  79087-3 0  9990
2 39444  97.6379 252.7268 0056528  15.2300 345.0600 14.83927678478648
HINCUBE                 
1 39445U 13066AF  22284.45445461  .00006344  00000+0  75157-3 0  9996
2 39445  97.6398 253.0511 0056624  15.7884 344.5080 14.83730335478844
UWE-3                   
1 39446U 13066AG  22284.44817501  .00004556  00000+0  58515-3 0  9996
2 39446  97.6999 243.5990 0069791  71.5631 289.3152 14.79941253478200
AIST-1 (RS-41)          
1 39492U 13078C   22284.54625302  .00001849  00000+0  19500-3 0  9990
2 39492  82.4164 125.5380 0021164  81.5178 278.8458 14.88640037477058
SPROUT                  
1 39770U 14029E   22284.31027050  .00018312  00000+0  17892-2 0  9991
2 39770  97.9523  42.1292 0009048  66.4525 293.7720 14.92396744454936
UNISAT-6                
1 40012U 14033C   22283.84228623  .00003481  00000+0  50832-3 0  9996
2 40012  97.6626 105.6787 0057855 144.1169 216.3948 14.75203546446997
BUGSAT-1 (TITA)         
1 40014U 14033E   22283.97881706  .00005691  00000+0  49289-3 0  9998
2 40014  98.1445 287.1597 0031555  18.1353 342.0996 14.97168626453422
DUCHIFAT-1              
1 40021U 14033M   22284.40533263  .00008362  00000+0  79549-3 0  9997
2 40021  98.0239 236.8241 0012911  25.6698 334.5160 14.93640592452002
NANOSATC-BR1            
1 40024U 14033Q   22283.43099610  .00006588  00000+0  64881-3 0  9996
2 40024  97.9946 228.5744 0012669  34.6735 325.5307 14.92347498451129
QB50P1                  
1 40025U 14033R   22284.11187421  .00006524  00000+0  66411-3 0  9992
2 40025  97.9675 222.4769 0013186  42.8016 317.4226 14.91019861451508
DTUSAT-2                
1 40030U 14033W   22284.07444469  .00005364  00000+0  55527-3 0  9998
2 40030  97.9417 217.3544 0012536  39.4810 320.7319 14.90431392451375
QB50P2                  
1 40032U 14033Y   22284.11591767  .00005694  00000+0  58934-3 0  9990
2 40032  97.9427 217.4110 0012633  40.8157 319.4005 14.90411730451366
POLYITAN-1              
1 40042U 14033AJ  22284.12114251  .00008078  00000+0  81753-3 0  9995
2 40042  97.9786 223.8430 0015206  34.5374 325.6829 14.91155780451398
TIGRISAT                
1 40043U 14033AK  22283.95123473  .00002691  00000+0  39349-3 0  9991
2 40043  97.6565 107.0094 0059793 141.1654 219.3876 14.75247821446952
AISAT                   
1 40054U 14034B   22284.46105876  .00005767  00000+0  76420-3 0  9996
2 40054  98.3661 100.6175 0011467 307.0342  52.9819 14.80245381446639
CANX-4                  
1 40055U 14034C   22284.43616433  .00001679  00000+0  25381-3 0  9998
2 40055  98.3704  85.2818 0013967 353.9259   6.1777 14.75609460445857
CANX-5                  
1 40056U 14034D   22284.44301969  .00001727  00000+0  26084-3 0  9990
2 40056  98.3706  85.2685 0013933 354.0494   6.0547 14.75606265445852
VELOX-I                 
1 40057U 14034E   22284.51440463  .00004495  00000+0  60713-3 0  9994
2 40057  98.3716 101.7756 0009837 323.3552  36.7019 14.79579746446637
METEOR-M 2              
1 40069U 14037A   22284.52795835  .00000041  00000+0  38397-4 0  9994
2 40069  98.4307 297.0297 0005546 358.1178   1.9986 14.20721287428349
DX1                     
1 40071U 14037C   22284.53810211  .00001799  00000+0  23376-3 0  9995
2 40071  98.3898 158.9503 0007472 311.7006  48.3580 14.82041283446531
UKUBE-1                 
1 40074U 14037F   22284.26897108  .00004723  00000+0  54944-3 0  9993
2 40074  98.3644 170.9171 0002842 286.3188  73.7770 14.85824466447261
FIREBIRD 3              
1 40377U 15003B   22284.15480841  .00044240  00000+0  11816-2 0  9991
2 40377  99.0806 175.0762 0091882 353.4639   6.5392 15.33713986426131
FIREBIRD 4              
1 40378U 15003C   22284.17258266  .00043602  00000+0  11607-2 0  9997
2 40378  99.0815 175.3365 0091793 352.9510   7.0430 15.33825135426147
GRIFEX                  
1 40379U 15003D   22284.19359539  .00023063  00000+0  76315-3 0  9992
2 40379  99.0929 159.9155 0111152  38.9844 321.9335 15.25508183425268
CP10 (EXOCUBE)          
1 40380U 15003E   22284.11111172  .00014858  00000+0  54470-3 0  9995
2 40380  99.1040 152.0327 0120756  65.0831 296.2892 15.21439649424747
DEORBITSAIL             
1 40719U 15032E   22284.36778920  .00004967  00000+0  67928-3 0  9992
2 40719  97.7636 158.7766 0015847 354.1049   5.9973 14.78890944391013
NUDT-PHONESAT           
1 40900U 15049B   22284.55313646  .00066527  00000+0  15299-2 0  9996
2 40900  97.3953 303.5696 0006961 209.8342 301.8255 15.42397208392462
XW-2A                   
1 40903U 15049E   22284.50152122  .00053632  00000+0  68920-3 0  9997
2 40903  97.1655 343.4861 0009213  58.1806  55.7498 15.58887929397305
XW-2C                   
1 40906U 15049H   22284.50358987  .00011721  00000+0  54180-3 0  9993
2 40906  97.4968 287.0944 0011949 320.7313 190.4699 15.20265305390549
XW-2D                   
1 40907U 15049J   22284.47210089  .00013577  00000+0  61212-3 0  9995
2 40907  97.4959 287.1534 0011299 316.6139 197.7598 15.21094082390590
LILACSAT-2              
1 40908U 15049K   22284.52307041  .00006847  00000+0  35436-3 0  9998
2 40908  97.5219 284.0331 0014394 341.6121 116.7669 15.16463943390073
XW-2E                   
1 40909U 15049L   22284.53357542  .00020962  00000+0  82374-3 0  9998
2 40909  97.4654 292.0330 0009363 290.1528 226.2851 15.25669113391093
XW-2F                   
1 40910U 15049M   22284.50115611  .00020860  00000+0  83300-3 0  9993
2 40910  97.4743 291.1639 0010163 290.9133 220.6560 15.25126074390858
XW-2B                   
1 40911U 15049N   22284.50565207  .00013344  00000+0  60397-3 0  9994
2 40911  97.4946 287.7486 0011093 317.7659 193.4320 15.20966727390481
KAITUO 1B               
1 40912U 15049P   22284.52152328  .00023739  00000+0  85445-3 0  9993
2 40912  97.4360 295.5343 0010048 246.8632 264.8757 15.28544254391464
TIANWANG 1A (TW-1A)     
1 40928U 15051D   22284.51684968  .00173504  00000+0  12901-2 0  9994
2 40928  97.0268 306.9027 0002972 317.4284 206.7973 15.72300056396385
LAPAN-A2                
1 40931U 15052B   22284.26878347  .00001266  00000+0  86533-4 0  9996
2 40931   5.9964  62.8491 0014027   8.6149 351.4267 14.76882135380491
LQSAT                   
1 40958U 15057A   22284.32810465  .00000855  00000+0  13885-3 0  9996
2 40958  97.7386 325.2874 0016933 310.6171  49.3572 14.73456901377041
ATHENOXAT 1             
1 41168U 15077C   22284.40552176  .00039793  00000+0  15428-2 0  9990
2 41168  14.9831 309.2918 0008894  74.9924  53.0794 15.24154774378000
GALASSIA                
1 41170U 15077E   22284.17971290  .00023045  00000+0  92234-3 0  9993
2 41170  14.9881 303.0058 0010301 100.2526 259.8958 15.22688175378038
VELOX-II                
1 41171U 15077F   22283.49040622  .00019233  00000+0  89420-3 0  9991
2 41171  14.9923  27.7072 0007173 274.5548  85.3954 15.17462033377162
CHUBUSAT-2              
1 41338U 16012B   22283.66829176  .00004889  00000+0  35932-3 0  9994
2 41338  31.0044  10.0963 0013115 216.1092 143.8659 15.01796176364815
CHUBUSAT-3              
1 41339U 16012C   22284.38727149  .00004464  00000+0  32716-3 0  9998
2 41339  31.0116   2.4249 0012787 232.5476 127.4020 15.01846763364920
HORYU-4                 
1 41340U 16012D   22283.48283153  .00008180  00000+0  57038-3 0  9995
2 41340  31.0055 344.1724 0012848 265.3578  94.5591 15.04029199365054
